O3B FM5                 
1 39188U 13031A   23304.40297586 -.00000025  00000+0  00000+0 0  9996
2 39188   0.0345   1.1573 0002997 216.1242 142.7030  5.00115708189029
O3B FM4                 
1 39189U 13031B   23304.85838036 -.00000026  00000+0  00000+0 0  9998
2 39189   0.0610  11.7921 0002965 206.5190 141.6731  5.00116158189069
O3B FM2                 
1 39190U 13031C   23304.55060614 -.00000025  00000+0  00000+0 0  9995
2 39190   0.0656  13.7032 0002801 204.0908 142.1917  5.00115341189105
O3B PFM                 
1 39191U 13031D   23304.77627146 -.00000026  00000+0  00000+0 0  9990
2 39191   0.0432   4.1589 0002587 215.6874 140.1400  5.00115992188678
O3B FM3                 
1 40079U 14038A   23304.63072146 -.00000025  00000+0  00000+0 0  9993
2 40079   0.0533  10.5807 0000687 271.5810  77.8359  5.00116659165047
O3B FM7                 
1 40080U 14038B   23304.77728815 -.00000026  00000+0  00000+0 0  9992
2 40080   0.0554  14.6354 0004328 194.2438 151.1022  5.00115896170161
O3B FM6                 
1 40081U 14038C   23304.60410386 -.00000025  00000+0  00000+0 0  9995
2 40081   0.0543   9.9192 0002638 207.9685 142.0991  5.00115190169827
O3B FM8                 
1 40082U 14038D   23304.85752573 -.00000026  00000+0  00000+0 0  9991
2 40082   0.0546  11.0357 0002653 212.0334 136.9154  5.00115275169954
O3B FM10                
1 40348U 14083A   23305.28379384 -.00000026  00000+0  00000+0 0  9999
2 40348   0.0482   2.3668 0002636 218.0996 139.5192  5.00115298162091
O3B FM11                
1 40349U 14083B   23304.69740540 -.00000025  00000+0  00000+0 0  9999
2 40349   0.0456   7.1712 0003069 201.0861 151.7314  5.00115530161911
O3B FM12                
1 40350U 14083C   23305.12447210 -.00000026  00000+0  00000+0 0  9999
2 40350   0.0465   7.0263 0002609 209.2359 143.7253  5.00115452162090
O3B FM9                 
1 40351U 14083D   23305.35086569 -.00000026  00000+0  00000+0 0  9991
2 40351   0.0447   8.2372 0002703 210.9276 140.8208  5.00115011162108
DIAMOND RED             
1 42783U 17036U   23304.84683681  .00052442  00000+0  90231-3 0  9991
2 42783  97.1334 337.3199 0004674 347.2301  12.8832 15.50926863353896
DIAMOND GREEN           
1 42785U 17036W   23304.64278462  .00061423  00000+0  96343-3 0  9997
2 42785  97.1305 337.6196 0004178 345.0026  15.1103 15.53481467353969
DIAMOND BLUE            
1 42786U 17036X   23305.06178587  .00058855  00000+0  97593-3 0  9995
2 42786  97.1334 337.8258 0004136 339.0129  21.0954 15.51941584353930
LEO VANTAGE 1           
1 43113U 18004C   23304.88808596  .00006297  00000+0  48158-3 0  9991
2 43113  99.2753  85.2015 0386703 121.1441 242.8285 14.58044890297182
O3B FM15                
1 43231U 18024A   23304.61742029 -.00000025  00000+0  00000+0 0  9997
2 43231   0.0501 358.9702 0002666 217.9307 143.0862  5.00114538103021
O3B FM16                
1 43232U 18024B   23304.87029689 -.00000026  00000+0  00000+0 0  9997
2 43232   0.0516 354.4985 0002715 221.1132 144.3755  5.00116279102950
O3B FM14                
1 43233U 18024C   23304.71049381 -.00000025  00000+0  00000+0 0  9991
2 43233   0.0528 353.4212 0002897 222.1309 144.4339  5.00115755102951
O3B FM13                
1 43234U 18024D   23304.76419262 -.00000026  00000+0  00000+0 0  9997
2 43234   0.0461  17.9362 0002284 187.0670 154.9911  5.00115646103071
O3B FM20                
1 44112U 19020A   23304.33739388 -.00000025  00000+0  00000+0 0  9996
2 44112   0.0489   2.5840 0002737 206.1674 151.2388  5.00115745 83556
O3B FM19                
1 44113U 19020B   23304.76418145 -.00000026  00000+0  00000+0 0  9990
2 44113   0.0328   6.3071 0004188 209.3898 144.2804  5.00115686 83438
O3B FM17                
1 44114U 19020C   23304.84430201 -.00000026  00000+0  00000+0 0  9997
2 44114   0.0683 359.0955 0002631 217.1715 143.7205  5.00116027 83538
O3B FM18                
1 44115U 19020D   23304.39095675 -.00000025  00000+0  00000+0 0  9999
2 44115   0.0485   2.6246 0002714 216.7575 140.6035  5.00116030 83636
SALSAT                  
1 46495U 20068K   23305.43341904  .00007151  00000+0  45027-3 0  9999
2 46495  97.7859 255.1334 0015682  20.8972 339.2894 15.09392571169767
O3B MPOWER F1           
1 54755U 22174A   23304.92490612 -.00000026  00000+0  00000+0 0  9994
2 54755   0.0521  19.1453 0005353 216.1480 227.6210  5.00118417 17372
O3B MPOWER F2           
1 54756U 22174B   23304.77947090 -.00000026  00000+0  00000+0 0  9995
2 54756   0.0545  18.9062 0007938 244.7251  96.2836  5.00113502 17448
O3B MPOWER F4           
1 56367U 23059A   23304.90034211 -.00000026  00000+0  00000+0 0  9995
2 56367   0.0376   7.8638 0006800 224.5865 127.4931  5.00114972 10550
O3B MPOWER F3           
1 56368U 23059B   23304.60068111 -.00000025  00000+0  00000+0 0  9998
2 56368   0.0364   4.7393 0003534 250.3751 104.8518  5.00114730  6731
